{"type": "FeatureCollection", "features": [ {"type": "Feature", "properties": {"norad_id": 30035, "name": "FENGYUN 1C DEB", "group": "fengyun-1c-debris", "lat": 41.55987196389327, "lon": -108.74951668276196, "alt_km": 689.9899397387198, "timestamp": "2025-12-10T21:43:22.361178+00:00", "meta": {"OBJECT_NAME": "FENGYUN 1C DEB", "OBJECT_ID": "1999-025NL", "EPOCH": "2025-12-10T12:19:00.383232", "MEAN_MOTION": 14.36973046, "ECCENTRICITY": 0.01156247, "INCLINATION": 99.2706, "RA_OF_ASC_NODE": 259.1549, "ARG_OF_PERICENTER": 68.3688, "MEAN_ANOMALY": 108.1967, "EPHEMERIS_TYPE": 0, "CLASSIFICATION_TYPE": "U", "NORAD_CAT_ID": 30035, "ELEMENT_SET_NO": 999, "REV_AT_EPOCH": 99091, "BSTAR": 0.00012227964, "MEAN_MOTION_DOT": 3.38e-06, "MEAN_MOTION_DDOT": 0}, "tle": {"line1": "1 30035U 99025NL  25344.51319888  .00000338  00000+0  12228-3 0  9998", "line2": "2 30035  99.2706 259.1549 0115624  68.3688 108.1967 14.36973046990912"}}, "geometry": {"type": "Point", "coordinates": [-108.74951668276196, 41.55987196389327]}}, {"type": "Feature", "properties": {"norad_id": 30036, "name": "FENGYUN 1C DEB", "group": "fengyun-1c-debris", "lat": 70.51702927496429, "lon": -12.172014506457112, "alt_km": 835.1715794130769, "timestamp": "2025-12-10T21:43:22.361189+00:00", "meta": {"OBJECT_NAME": "FENGYUN 1C DEB", "OBJECT_ID": "1999-025NM", "EPOCH": "2025-12-10T13:47:14.540640", "MEAN_MOTION": 14.46168527, "ECCENTRICITY": 0.01898648, "INCLINATION": 98.253, "RA_OF_ASC_NODE": 11.7267, "ARG_OF_PERICENTER": 214.2216, "MEAN_ANOMALY": 299.085, "EPHEMERIS_TYPE": 0, "CLASSIFICATION_TYPE": "U", "NORAD_CAT_ID": 30036, "ELEMENT_SET_NO": 999, "REV_AT_EPOCH": 99145, "BSTAR": 0.00064670257, "MEAN_MOTION_DOT": 2.841e-05, "MEAN_MOTION_DDOT": 0}, "tle": {"line1": "1 30036U 99025NM  25344.57447385  .00002841  00000+0  64670-3 0  9998", "line2": "2 30036  98.2530  11.7267 0189864 214.2216 299.0850 14.46168527991454"}}, "geometry": {"type": "Point", "coordinates": [-12.172014506457112, 70.51702927496429]}}, {"type": "Feature", "properties": {"norad_id": 30037, "name": "FENGYUN 1C DEB", "group": "fengyun-1c-debris", "lat": -9.1367167269308, "lon": 139.3181050543605, "alt_km": 858.7038438703821, "timestamp": "2025-12-10T21:43:22.361199+00:00", "meta": {"OBJECT_NAME": "FENGYUN 1C DEB", "OBJECT_ID": "1999-025NN", "EPOCH": "2025-12-09T10:22:55.253280", "MEAN_MOTION": 14.34111274, "ECCENTRICITY": 0.01745574, "INCLINATION": 98.3831, "RA_OF_ASC_NODE": 319.2486, "ARG_OF_PERICENTER": 64.8781, "MEAN_ANOMALY": 84.6299, "EPHEMERIS_TYPE": 0, "CLASSIFICATION_TYPE": "U", "NORAD_CAT_ID": 30037, "ELEMENT_SET_NO": 999, "REV_AT_EPOCH": 98740, "BSTAR": 0.00035366107, "MEAN_MOTION_DOT": 1.128e-05, "MEAN_MOTION_DDOT": 0}, "tle": {"line1": "1 30037U 99025NN  25343.43258395  .00001128  00000+0  35366-3 0  9991", "line2": "2 30037  98.3831 319.2486 0174557  64.8781  84.6299 14.34111274987407"}}, "geometry": {"type": "Point", "coordinates": [139.3181050543605, -9.1367167269308]}}, {"type": "Feature", "properties": {"norad_id": 30038, "name": "FENGYUN 1C DEB", "group": "fengyun-1c-debris", "lat": -7.302663871356687, "lon": 151.49491033270925, "alt_km": 724.9104982895824, "timestamp": "2025-12-10T21:43:22.361209+00:00", "meta": {"OBJECT_NAME": "FENGYUN 1C DEB", "OBJECT_ID": "1999-025NP", "EPOCH": "2025-12-10T11:26:00.960000", "MEAN_MOTION": 14.39286938, "ECCENTRICITY": 0.02579761, "INCLINATION": 98.3683, "RA_OF_ASC_NODE": 332.1568, "ARG_OF_PERICENTER": 109.5791, "MEAN_ANOMALY": 14.6964, "EPHEMERIS_TYPE": 0, "CLASSIFICATION_TYPE": "U", "NORAD_CAT_ID": 30038, "ELEMENT_SET_NO": 999, "REV_AT_EPOCH": 98858, "BSTAR": 0.00031463385, "MEAN_MOTION_DOT": 1.393e-05, "MEAN_MOTION_DDOT": 0}, "tle": {"line1": "1 30038U 99025NP  25344.47640000  .00001393  00000+0  31463-3 0  9993", "line2": "2 30038  98.3683 332.1568 0257976 109.5791  14.6964 14.39286938988580"}}, "geometry": {"type": "Point", "coordinates": [151.49491033270925, -7.302663871356687]}}, {"type": "Feature", "properties": {"norad_id": 30040, "name": "FENGYUN 1C DEB", "group": "fengyun-1c-debris", "lat": -33.96038496146916, "lon": 6.960304378640101, "alt_km": 751.3927528821323, "timestamp": "2025-12-10T21:43:22.361220+00:00", "meta": {"OBJECT_NAME": "FENGYUN 1C DEB", "OBJECT_ID": "1999-025NR", "EPOCH": "2025-12-10T12:33:56.945664", "MEAN_MOTION": 14.37082211, "ECCENTRICITY": 0.00323067, "INCLINATION": 98.2346, "RA_OF_ASC_NODE": 0.9981, "ARG_OF_PERICENTER": 319.823, "MEAN_ANOMALY": 193.096, "EPHEMERIS_TYPE": 0, "CLASSIFICATION_TYPE": "U", "NORAD_CAT_ID": 30040, "ELEMENT_SET_NO": 999, "REV_AT_EPOCH": 97896, "BSTAR": 0.0025325386, "MEAN_MOTION_DOT": 7.53e-05, "MEAN_MOTION_DDOT": 0}, "tle": {"line1": "1 30040U 99025NR  25344.52357576  .00007530  00000+0  25325-2 0  9993", "line2": "2 30040  98.2346   0.9981 0032306 319.8230 193.0960 14.37082211978964"}}, "geometry": {"type": "Point", "coordinates": [6.960304378640101, -33.96038496146916]}}, {"type": "Feature", "properties": {"norad_id": 30041, "name": "FENGYUN 1C DEB", "group": "fengyun-1c-debris", "lat": 64.25050633709559, "lon": 71.05967875966259, "alt_km": 865.1451161446976, "timestamp": "2025-12-10T21:43:22.361230+00:00", "meta": {"OBJECT_NAME": "FENGYUN 1C DEB", "OBJECT_ID": "1999-025NS", "EPOCH": "2025-12-10T12:59:20.135328", "MEAN_MOTION": 14.13179354, "ECCENTRICITY": 0.00347347, "INCLINATION": 99.467, "RA_OF_ASC_NODE": 90.914, "ARG_OF_PERICENTER": 223.235, "MEAN_ANOMALY": 152.5297, "EPHEMERIS_TYPE": 0, "CLASSIFICATION_TYPE": "U", "NORAD_CAT_ID": 30041, "ELEMENT_SET_NO": 999, "REV_AT_EPOCH": 97256, "BSTAR": 0.00076144503, "MEAN_MOTION_DOT": 1.384e-05, "MEAN_MOTION_DDOT": 0}, "tle": {"line1": "1 30041U 99025NS  25344.54120527  .00001384  00000+0  76145-3 0  9998", "line2": "2 30041  99.4670  90.9140 0034734 223.2350 152.5297 14.13179354972564"}}, "geometry": {"type": "Point", "coordinates": [71.05967875966259, 64.25050633709559]}}, {"type": "Feature", "properties": {"norad_id": 30043, "name": "FENGYUN 1C DEB", "group": "fengyun-1c-debris", "lat": 7.826306814503343, "lon": 81.70041827223135, "alt_km": 937.9774249253915, "timestamp": "2025-12-10T21:43:22.361241+00:00", "meta": {"OBJECT_NAME": "FENGYUN 1C DEB", "OBJECT_ID": "1999-025NU", "EPOCH": "2025-12-10T13:14:59.142624", "MEAN_MOTION": 14.23546477, "ECCENTRICITY": 0.02838001, "INCLINATION": 98.627, "RA_OF_ASC_NODE": 82.5494, "ARG_OF_PERICENTER": 137.3129, "MEAN_ANOMALY": 225.0483, "EPHEMERIS_TYPE": 0, "CLASSIFICATION_TYPE": "U", "NORAD_CAT_ID": 30043, "ELEMENT_SET_NO": 999, "REV_AT_EPOCH": 97314, "BSTAR": 0.001689093, "MEAN_MOTION_DOT": 5.788e-05, "MEAN_MOTION_DDOT": 0}, "tle": {"line1": "1 30043U 99025NU  25344.55207341  .00005788  00000+0  16891-2 0  9994", "line2": "2 30043  98.6270  82.5494 0283800 137.3129 225.0483 14.23546477973144"}}, "geometry": {"type": "Point", "coordinates": [81.70041827223135, 7.826306814503343]}}, {"type": "Feature", "properties": {"norad_id": 30044, "name": "FENGYUN 1C DEB", "group": "fengyun-1c-debris", "lat": 72.69541665757698, "lon": -122.36810505361355, "alt_km": 724.2969027900181, "timestamp": "2025-12-10T21:43:22.361251+00:00", "meta": {"OBJECT_NAME": "FENGYUN 1C DEB", "OBJECT_ID": "1999-025NV", "EPOCH": "2025-12-10T08:07:56.549280", "MEAN_MOTION": 14.5060507, "ECCENTRICITY": 0.00792756, "INCLINATION": 98.2112, "RA_OF_ASC_NODE": 264.6909, "ARG_OF_PERICENTER": 174.7468, "MEAN_ANOMALY": 185.4577, "EPHEMERIS_TYPE": 0, "CLASSIFICATION_TYPE": "U", "NORAD_CAT_ID": 30044, "ELEMENT_SET_NO": 999, "REV_AT_EPOCH": 98004, "BSTAR": 0.0025793667, "MEAN_MOTION_DOT": 0.00010503, "MEAN_MOTION_DDOT": 0}, "tle": {"line1": "1 30044U 99025NV  25344.33884895  .00010503  00000+0  25794-2 0  9999", "line2": "2 30044  98.2112 264.6909 0079275 174.7468 185.4577 14.50605070980045"}}, "geometry": {"type": "Point", "coordinates": [-122.36810505361355, 72.69541665757698]}}, {"type": "Feature", "properties": {"norad_id": 30045, "name": "FENGYUN 1C DEB", "group": "fengyun-1c-debris", "lat": 67.20701299437111, "lon": -2.2295888138245266, "alt_km": 768.6085146283594, "timestamp": "2025-12-10T21:43:22.361261+00:00", "meta": {"OBJECT_NAME": "FENGYUN 1C DEB", "OBJECT_ID": "1999-025NW", "EPOCH": "2025-12-10T01:25:04.970784", "MEAN_MOTION": 14.21564555, "ECCENTRICITY": 0.00949481, "INCLINATION": 99.1786, "RA_OF_ASC_NODE": 19.5201, "ARG_OF_PERICENTER": 120.9197, "MEAN_ANOMALY": 301.6886, "EPHEMERIS_TYPE": 0, "CLASSIFICATION_TYPE": "U", "NORAD_CAT_ID": 30045, "ELEMENT_SET_NO": 999, "REV_AT_EPOCH": 96650, "BSTAR": 0.0026668792, "MEAN_MOTION_DOT": 6.075e-05, "MEAN_MOTION_DDOT": 0}, "tle": {"line1": "1 30045U 99025NW  25344.05908531  .00006075  00000+0  26669-2 0  9994", "line2": "2 30045  99.1786  19.5201 0094948 120.9197 301.6886 14.21564555966501"}}, "geometry": {"type": "Point", "coordinates": [-2.2295888138245266, 67.20701299437111]}}, {"type": "Feature", "properties": {"norad_id": 30047, "name": "FENGYUN 1C DEB", "group": "fengyun-1c-debris", "lat": -6.208306786233065, "lon": -39.32916576870027, "alt_km": 988.3068299322931, "timestamp": "2025-12-10T21:43:22.361271+00:00", "meta": {"OBJECT_NAME": "FENGYUN 1C DEB", "OBJECT_ID": "1999-025NY", "EPOCH": "2025-12-10T08:54:30.701088", "MEAN_MOTION": 13.94348696, "ECCENTRICITY": 0.01256287, "INCLINATION": 99.9192, "RA_OF_ASC_NODE": 141.1885, "ARG_OF_PERICENTER": 329.1224, "MEAN_ANOMALY": 59.2335, "EPHEMERIS_TYPE": 0, "CLASSIFICATION_TYPE": "U", "NORAD_CAT_ID": 30047, "ELEMENT_SET_NO": 999, "REV_AT_EPOCH": 95883, "BSTAR": 0.00097454556, "MEAN_MOTION_DOT": 1.333e-05, "MEAN_MOTION_DDOT": 0}, "tle": {"line1": "1 30047U 99025NY  25344.37118867  .00001333  00000+0  97455-3 0  9990", "line2": "2 30047  99.9192 141.1885 0125628 329.1224  59.2335 13.94348696958833"}}, "geometry": {"type": "Point", "coordinates": [-39.32916576870027, -6.208306786233065]}}]}